stk.v.5.0 
BEGIN Ephemeris 
NumberOfEphemerisPoints 138
ScenarioEpoch 	11 Jan 2021 09:02:30
DistanceUnit 	 Kilometers 
CentralBody Earth
CoordinateSystem Inertial
EphemerisTimePosVel
9.16491265920000e+04 2.03228772156955e+04 6.54558709752382e+03 1.56256478936329e+04 -2.37983981951351e+00 2.10195164812955e+00 2.24549282263064e+00 
9.19491265920000e+04 1.95951517314271e+04 7.16497987999305e+03 1.62791065010550e+04 -2.50771248196953e+00 2.05803176262901e+00 2.14329014027116e+00 
9.22491265920000e+04 1.88297360471331e+04 7.77097006084282e+03 1.69017913734880e+04 -2.63077661556963e+00 2.01019641399706e+00 2.03702147250239e+00 
9.25491265920000e+04 1.80280554683849e+04 8.36240071833894e+03 1.74925025160038e+04 -2.74879657339667e+00 1.95853711880789e+00 1.92689019212554e+00 
9.28491265920000e+04 1.71916053004880e+04 8.93814068969337e+03 1.80500983197904e+04 -2.86154635756759e+00 1.90315271952155e+00 1.81310707643522e+00 
9.31491265920000e+04 1.63219482869327e+04 9.49708673062585e+03 1.85734978329299e+04 -2.96881005353503e+00 1.84414919592594e+00 1.69588990413943e+00 
9.34491265920000e+04 1.54207119116864e+04 1.00381656377653e+04 1.90616829359976e+04 -3.07038224515816e+00 1.78163946279159e+00 1.57546303867818e+00 
9.37491265920000e+04 1.44895855682358e+04 1.05603363297253e+04 1.95137004174708e+04 -3.16606840971681e+00 1.71574315411804e+00 1.45205699873557e+00 
9.40491265920000e+04 1.35303175986184e+04 1.10625918826420e+04 1.99286639439695e+04 -3.25568529208125e+00 1.64658639437855e+00 1.32590801676866e+00 
9.43491265920000e+04 1.25447122060247e+04 1.15439615159264e+04 2.03057559204124e+04 -3.33906125728943e+00 1.57430155719716e+00 1.19725758640257e+00 
9.46491265920000e+04 1.15346262449066e+04 1.20035125239601e+04 2.06442292352408e+04 -3.41603662082563e+00 1.49902701191879e+00 1.06635199956596e+00 
9.49491265920000e+04 1.05019658928820e+04 1.24403521494488e+04 2.09434088859605e+04 -3.48646395593785e+00 1.42090685855876e+00 9.33441874264453e-01 
9.52491265920000e+04 9.44868320909268e+03 1.28536293941510e+04 2.12026934803664e+04 -3.55020837737736e+00 1.34009065164275e+00 7.98781673909645e-01 
9.55491265920000e+04 8.37677258404222e+03 1.32425367627123e+04 2.14215566089469e+04 -3.60714780099036e+00 1.25673311347199e+00 6.62629219141276e-01 
9.58491265920000e+04 7.28826708630707e+03 1.36063119353665e+04 2.15995480841266e+04 -3.65717317864110e+00 1.17099383737104e+00 5.25245193096171e-01 
9.61491265920000e+04 6.18523471188798e+03 1.39442393653083e+04 2.17362950421822e+04 -3.70018870799536e+00 1.08303698149679e+00 3.86892641092799e-01 
9.64491265920000e+04 5.06977454233540e+03 1.42556517966050e+04 2.18315029038673e+04 -3.73611201674522e+00 9.93030953807279e-01 2.47836465712488e-01 
9.67491265920000e+04 3.94401281814708e+03 1.45399316985888e+04 2.18849561900066e+04 -3.76487432090792e+00 9.01148088807831e-01 1.08342918268604e-01 
9.70491265920000e+04 2.81009893429260e+03 1.47965126127692e+04 2.18965191885633e+04 -3.78642055688563e+00 8.07564316708908e-01 -3.13209123372528e-02 
9.73491265920000e+04 1.67020136506886e+03 1.50248804084133e+04 2.18661364699515e+04 -3.80070948702671e+00 7.12458825646033e-01 -1.70887612367476e-01 
9.76491265920000e+04 5.26503525829376e+02 1.52245744430717e+04 2.17938332476516e+04 -3.80771377848419e+00 6.16013717626324e-01 -3.10089956601280e-01 
9.79491265920000e+04 -6.18800420548814e+02 1.53951886244734e+04 2.16797155814963e+04 -3.80742005522218e+00 5.18413658878541e-01 -4.48661421280034e-01 
9.82491265920000e+04 -1.76350980428167e+03 1.55363723703762e+04 2.15239704213228e+04 -3.79982892307649e+00 4.19845525294972e-01 -5.86336695637961e-01 
9.85491265920000e+04 -2.90542172791427e+03 1.56478314631392e+04 2.13268654890329e+04 -3.78495496783126e+00 3.20498043662304e-01 -7.22852191015904e-01 
9.88491265920000e+04 -4.04233537543342e+03 1.57293287959824e+04 2.10887489974689e+04 -3.76282672632880e+00 2.20561429386862e-01 -8.57946546561309e-01 
9.91491265920000e+04 -5.17205634226935e+03 1.57806850081091e+04 2.08100492048939e+04 -3.73348663068503e+00 1.20227021425108e-01 -9.91361130527000e-01 
9.94491265920000e+04 -6.29240097696629e+03 1.58017790061014e+04 2.04912738042622e+04 -3.69699092573756e+00 1.96869151351395e-02 -1.12284053619143e+00 
9.97491265920000e+04 -7.40120072510421e+03 1.57925483692378e+04 2.01330091468768e+04 -3.65340955990751e+00 -8.08664062327645e-02 -1.25213307143661e+00 
1.00049126592000e+05 -8.49630646587584e+03 1.57529896366469e+04 1.97359193004527e+04 -3.60282604970966e+00 -1.81240440687144e-01 -1.37899124103471e+00 
1.00349126592000e+05 -9.57559283157792e+03 1.56831584744808e+04 1.93007449420409e+04 -3.54533731819788e+00 -2.81243036569093e-01 -1.50317222071132e+00 
1.00649126592000e+05 -1.06369625001604e+04 1.55831697215802e+04 1.88283020867084e+04 -3.48105350768420e+00 -3.80682760832203e-01 -1.62443832207281e+00 
1.00949126592000e+05 -1.16783504508880e+04 1.54531973123995e+04 1.83194806533212e+04 -3.41009776712021e+00 -4.79369265815411e-01 -1.74255744750537e+00 
1.01249126592000e+05 -1.26977281731225e+04 1.52934740762699e+04 1.77752428692297e+04 -3.33260601457851e+00 -5.77113653801214e-01 -1.85730353417669e+00 
1.01549126592000e+05 -1.36931078182066e+04 1.51042914123966e+04 1.71966215161189e+04 -3.24872667531966e+00 -6.73728838657539e-01 -1.96845698629446e+00 
1.01849126592000e+05 -1.46625462844523e+04 1.48859988403125e+04 1.65847180197384e+04 -3.15862039597591e+00 -7.69029903870350e-01 -2.07580509480277e+00 
1.02149126592000e+05 -1.56041492252802e+04 1.46390034258446e+04 1.59407003866940e+04 -3.06245973542849e+00 -8.62834456282595e-01 -2.17914244372341e+00 
1.02449126592000e+05 -1.65160749706457e+04 1.43637690829890e+04 1.52658009919293e+04 -2.96042883299729e+00 -9.54962974866418e-01 -2.27827130237854e+00 
1.02749126592000e+05 -1.73965383520040e+04 1.40608157524322e+04 1.45613142209844e+04 -2.85272305460406e+00 -1.04523915386686e+00 -2.37300200276039e+00 
1.03049126592000e+05 -1.82438144212234e+04 1.37307184578054e+04 1.38285939715575e+04 -2.73954861760972e+00 -1.13349023966848e+00 -2.46315330134449e+00 
1.03349126592000e+05 -1.90562420540468e+04 1.33741062411023e+04 1.30690510193300e+04 -2.62112219506404e+00 -1.21954736075048e+00 -2.54855272467502e+00 
1.03649126592000e+05 -1.98322274289271e+04 1.29916609790433e+04 1.22841502534425e+04 -2.49767050014297e+00 -1.30324585011078e+00 -2.62903689808335e+00 
1.03949126592000e+05 -2.05702473723204e+04 1.25841160825077e+04 1.14754077874126e+04 -2.36942985158270e+00 -1.38442555955579e+00 -2.70445185693461e+00 
1.04249126592000e+05 -2.12688525618189e+04 1.21522550815059e+04 1.06443879516873e+04 -2.23664572095259e+00 -1.46293116526970e+00 -2.77465333983150e+00 
1.04549126592000e+05 -2.19266705788266e+04 1.16969100984927e+04 9.79270017439514e+03 -2.09957226264012e+00 -1.53861246409464e+00 -2.83950706323948e+00 
1.04849126592000e+05 -2.25424088028446e+04 1.12189602131610e+04 8.92199575722503e+03 -1.95847182744995e+00 -1.61132465997214e+00 -2.89888897703311e+00 
1.05149126592000e+05 -2.31148571398180e+04 1.07193297221754e+04 8.03396455369698e+03 -1.81361446074686e+00 -1.68092864001553e+00 -2.95268550049959e+00 
1.05449126592000e+05 -2.36428905774164e+04 1.01989862976178e+04 7.13033155740392e+03 -1.66527738609768e+00 -1.74729123970315e+00 -3.00079373837212e+00 
1.05749126592000e+05 -2.41254715605646e+04 9.65893904822493e+03 6.21285340810017e+03 -1.51374447539171e+00 -1.81028549670303e+00 -3.04312167650258e+00 
1.06049126592000e+05 -2.45616521810135e+04 9.10023648778564e+03 5.28331482377535e+03 -1.35930570644074e+00 -1.86979089286123e+00 -3.07958835682071e+00 
1.06349126592000e+05 -2.49505761752337e+04 8.52396441534594e+03 4.34352496709737e+03 -1.20225660908104e+00 -1.92569358390796e+00 -3.11012403126442e+00 
1.06649126592000e+05 -2.52914807254348e+04 7.93124371213191e+03 3.39531375481792e+03 -1.04289770081765e+00 -1.97788661645841e+00 -3.13467029440410e+00 
1.06949126592000e+05 -2.55836980590493e+04 7.32322806035046e+03 2.44052811892242e+03 -8.81533913069352e-01 -2.02627013190800e+00 -3.15318019452172e+00 
1.07249126592000e+05 -2.58266568425764e+04 6.70110158925678e+03 1.48102822845826e+03 -7.18474009087545e-01 -2.07075155684600e+00 -3.16561832294429e+00 
1.07549126592000e+05 -2.60198833662490e+04 6.06607645409221e+03 5.18683681103088e+02 -5.54029994636509e-01 -2.11124577963498e+00 -3.17196088146971e+00 
1.07849126592000e+05 -2.61630025165763e+04 5.41939035368940e+03 -4.44630326372569e+02 -3.88516522534612e-01 -2.14767531282863e+00 -3.17219572776165e+00 
1.08149126592000e+05 -2.62557385344026e+04 4.76230399271680e+03 -1.40703683953030e+03 -2.22250292166702e-01 -2.17997044112535e+00 -3.16632239862951e+00 
1.08449126592000e+05 -2.62979155567303e+04 4.09609849468912e+03 -2.36666099032615e+03 -5.55494450869876e-02 -2.20806935458058e+00 -3.15435211114803e+00 
1.08749126592000e+05 -2.62894579411609e+04 3.42207277200187e+03 -3.32163383456264e+03 1.11267042161269e-01 -2.23191826682678e+00 -3.13630774161054e+00 
1.09049126592000e+05 -2.62303903724199e+04 2.74154085936283e+03 -4.27009617351016e+03 2.77879966876598e-01 -2.25147151807625e+00 -3.11222378234912e+00 
1.09349126592000e+05 -2.61208377510429e+04 2.05582921707901e+03 -5.21020235054586e+03 4.43970509544800e-01 -2.26669166270896e+00 -3.08214627649386e+00 
1.09649126592000e+05 -2.59610248649100e+04 1.36627401072824e+03 -6.14012401374813e+03 6.09220842560153e-01 -2.27754954127431e+00 -3.04613273078325e+00 
1.09949126592000e+05 -2.57512758449205e+04 6.74218373786902e+02 -7.05805383551189e+03 7.73314737183189e-01 -2.28402433676380e+00 -3.00425200657640e+00 
1.10249126592000e+05 -2.54920134066979e+04 -1.89903401910342e+01 -7.96220918040378e+03 9.35938167596790e-01 -2.28610361503885e+00 -2.95658418925770e+00 
1.10549126592000e+05 -2.51837578808023e+04 -7.12003309250397e+02 -8.85083571266075e+03 1.09677991092542e+00 -2.28378334932694e+00 -2.90322043626319e+00 
END Ephemeris